OTTER                   
1 62623U 25009Q   26068.72300813  .00012198  00000+0  45151-3 0  9990
2 62623  97.4065 151.3812 0003573 310.7710  49.3219 15.27809545 63722
STARLINK-36524          
1 67452U 26008H   26068.86228837  .00042245  00000+0  15351-2 0  9999
2 67452  43.0011 204.6815 0002449 288.5037  71.5549 15.27595859  9593
